{
    "links": {
        "self": "http://www.neowsapp.com/rest/v1/neo/3825239?api_key=iIulBulltgU6a56xZRHN4H3l9WmuAYTsLGpBGhQ2"
    },
    "id": "3825239",
    "neo_reference_id": "3825239",
    "name": "(2018 LP5)",
    "designation": "2018 LP5",
    "nasa_jpl_url": "http://ssd.jpl.nasa.gov/sbdb.cgi?sstr=3825239",
    "absolute_magnitude_h": 20.8,
    "estimated_diameter": {
        "kilometers": {
            "estimated_diameter_min": 0.1838886721,
            "estimated_diameter_max": 0.411187571
        },
        "meters": {
            "estimated_diameter_min": 183.8886720703,
            "estimated_diameter_max": 411.1875710413
        },
        "miles": {
            "estimated_diameter_min": 0.1142630881,
            "estimated_diameter_max": 0.2555000322
        },
        "feet": {
            "estimated_diameter_min": 603.309310875,
            "estimated_diameter_max": 1349.040630575
        }
    },
    "is_potentially_hazardous_asteroid": false,
    "close_approach_data": [
        {
            "close_approach_date": "2001-07-09",
            "close_approach_date_full": "2001-Jul-09 01:53",
            "epoch_date_close_approach": 994643580000,
            "relative_velocity": {
                "kilometers_per_second": "16.973688276",
                "kilometers_per_hour": "61105.2777936162",
                "miles_per_hour": "37968.4433045945"
            },
            "miss_distance": {
                "astronomical": "0.4393990351",
                "lunar": "170.9262246539",
                "kilometers": "65733159.731015237",
                "miles": "40844691.4633427906"
            },
            "orbiting_body": "Earth"
        },
        {
            "close_approach_date": "2018-07-11",
            "close_approach_date_full": "2018-Jul-11 03:56",
            "epoch_date_close_approach": 1531281360000,
            "relative_velocity": {
                "kilometers_per_second": "14.4470872162",
                "kilometers_per_hour": "52009.5139783484",
                "miles_per_hour": "32316.6893939355"
            },
            "miss_distance": {
                "astronomical": "0.3293234425",
                "lunar": "128.1068191325",
                "kilometers": "49266085.539067475",
                "miles": "30612526.032282155"
            },
            "orbiting_body": "Earth"
        },
        {
            "close_approach_date": "2035-07-11",
            "close_approach_date_full": "2035-Jul-11 04:43",
            "epoch_date_close_approach": 2067741780000,
            "relative_velocity": {
                "kilometers_per_second": "12.7748749528",
                "kilometers_per_hour": "45989.5498301563",
                "miles_per_hour": "28576.1177819657"
            },
            "miss_distance": {
                "astronomical": "0.3426492276",
                "lunar": "133.2905495364",
                "kilometers": "51259594.606105212",
                "miles": "31851235.1268354456"
            },
            "orbiting_body": "Earth"
        },
        {
            "close_approach_date": "2052-07-07",
            "close_approach_date_full": "2052-Jul-07 04:36",
            "epoch_date_close_approach": 2603939760000,
            "relative_velocity": {
                "kilometers_per_second": "12.2548606614",
                "kilometers_per_hour": "44117.4983809208",
                "miles_per_hour": "27412.8978134116"
            },
            "miss_distance": {
                "astronomical": "0.4629133983",
                "lunar": "180.0733119387",
                "kilometers": "69250858.380141621",
                "miles": "43030488.0471755298"
            },
            "orbiting_body": "Earth"
        },
        {
            "close_approach_date": "2093-07-08",
            "close_approach_date_full": "2093-Jul-08 17:41",
            "epoch_date_close_approach": 3897913260000,
            "relative_velocity": {
                "kilometers_per_second": "16.9144594558",
                "kilometers_per_hour": "60892.0540407346",
                "miles_per_hour": "37835.9543565886"
            },
            "miss_distance": {
                "astronomical": "0.4285720716",
                "lunar": "166.7145358524",
                "kilometers": "64113469.052847492",
                "miles": "39838262.3446677096"
            },
            "orbiting_body": "Earth"
        }
    ],
    "orbital_data": {
        "orbit_id": "14",
        "orbit_determination_date": "2018-09-10 06:54:41",
        "first_observation_date": "2018-06-13",
        "last_observation_date": "2018-09-05",
        "data_arc_in_days": 84,
        "observations_used": 67,
        "orbit_uncertainty": "6",
        "minimum_orbit_intersection": ".314323",
        "jupiter_tisserand_invariant": "3.364",
        "epoch_osculation": "2459000.5",
        "eccentricity": ".4573345750208899",
        "semi_major_axis": "2.263767450990619",
        "inclination": "24.74336870686389",
        "ascending_node_longitude": "272.7543542629439",
        "orbital_period": "1244.073799191254",
        "perihelion_distance": "1.228468325845701",
        "perihelion_argument": "50.84507356716755",
        "aphelion_distance": "3.299066576135537",
        "perihelion_time": "2459588.803746803907",
        "mean_anomaly": "189.7614265431149",
        "mean_motion": ".2893719007940112",
        "equinox": "J2000",
        "orbit_class": {
            "orbit_class_type": "AMO",
            "orbit_class_description": "Near-Earth asteroid orbits similar to that of 1221 Amor",
            "orbit_class_range": "1.017 AU < q (perihelion) < 1.3 AU"
        }
    },
    "is_sentry_object": false
}